{"type":"FeatureCollection","features":[{"type":"Feature","id":1,"geometry":{"type":"Polygon","coordinates":[[[115.17405427868444,4.7882385653176787],[115.21638541554482,4.6834870724805517],[115.25871655240522,4.5787198876457325],[115.3537822396859,4.6134056200402389],[115.30642876490414,4.7203127820899597],[115.25907529012234,4.827203475557873],[115.17405427868444,4.7882385653176787]]]},"properties":{"OBJECTID":1,"Shape_Length":73019.506198804273,"Shape_Area":278035523.30269921,"Area":274.34389415666413}}]}