{"type":"FeatureCollection","features":[{"type":"Feature","id":1,"geometry":{"type":"Polygon","coordinates":[[[115.21693037600005,4.7946779030000357],[115.22177033300011,4.7856784550000384],[115.23348990400007,4.790929985000048],[115.22769630900007,4.7999936760000423],[115.21693037600005,4.7946779030000357]]]},"properties":{"OBJECTID":1,"Shape_Length":0.045824693055242227,"Shape_Area":0.00012963168754686052,"Area":1.5902150443996728,"Name":"Site 1","TotalLoss":28.329999999999998}},{"type":"Feature","id":2,"geometry":{"type":"Polygon","coordinates":[[[115.23781293000002,4.784999565000021],[115.24588621500004,4.7743391590000215],[115.25083416100006,4.7769935570000257],[115.24210033400004,4.7881432530000438],[115.23781293000002,4.784999565000021]]]},"properties":{"OBJECTID":2,"Shape_Length":0.038467040492700624,"Shape_Area":7.4718251573759937e-05,"Area":0.91659737880198622,"Name":"Site 2","TotalLoss":14.35}},{"type":"Feature","id":3,"geometry":{"type":"Polygon","coordinates":[[[115.25299731200005,4.7586899510000649],[115.25251585000001,4.7521921800000655],[115.25931463000006,4.752210486000024],[115.25931623300005,4.7589363530000242],[115.25299731200005,4.7586899510000649]]]},"properties":{"OBJECTID":3,"Shape_Length":0.0263639790549135,"Shape_Area":4.3333964561744841e-05,"Area":0.53161363041408527,"Name":"Site 3","TotalLoss":9.0600000000000005}},{"type":"Feature","id":4,"geometry":{"type":"Polygon","coordinates":[[[115.28140255500011,4.7548226030000365],[115.28386564100003,4.7500432180000303],[115.2889894860001,4.7522117510000612],[115.2864843210001,4.7570420220000642],[115.28140255500011,4.7548226030000365]]]},"properties":{"OBJECTID":4,"Shape_Length":0.021927127558246367,"Shape_Area":2.9968214473098767e-05,"Area":0.36764591078235187,"Name":"Site 4","TotalLoss":6.7599999999999998}},{"type":"Feature","id":5,"geometry":{"type":"Polygon","coordinates":[[[115.28216707100012,4.7279666960000668],[115.28219031200001,4.7240247310000427],[115.28999217800003,4.7240396060000762],[115.29003069500004,4.7279664520000324],[115.28216707100012,4.7279666960000668]]]},"properties":{"OBJECTID":5,"Shape_Length":0.023534572590497599,"Shape_Area":3.0817139132125885e-05,"Area":0.37807506198250312,"Name":"Site 5","TotalLoss":6.9800000000000004}},{"type":"Feature","id":6,"geometry":{"type":"Polygon","coordinates":[[[115.33173673700003,4.650548782000044],[115.33583607000003,4.6418883490000553],[115.34177100500006,4.6445473340000376],[115.33742282200001,4.6530812400000627],[115.33173673700003,4.650548782000044]]]},"properties":{"OBJECTID":6,"Shape_Length":0.03188732738034341,"Shape_Area":6.0917638802974215e-05,"Area":0.74743988311006371,"Name":"Site 6","TotalLoss":14.31}}]}